[
    {
        "Altitude(m)": 611965.1761282582,
        "Argument of Periapsis(deg)": 0.0,
        "Eccentricity": 0.0,
        "Inclination(deg)": 60.0,
        "Latitude(deg)": 59.14013359274287,
        "Longitude(deg)": -126.03007756722918,
        "Mean Anomaly(deg)": 81.8182,
        "RAAN(deg)": 260.0,
        "Satellite Name": "Test1 1149",
        "Satellite Number": 1149,
        "Semi-Major Axis(m)": 6980739.136638005,
        "Time(s)": 0
    },
    {
        "Altitude(m)": 611995.8012521204,
        "Argument of Periapsis(deg)": 0.00010418945913296404,
        "Eccentricity": 0.0,
        "Inclination(deg)": 60.0,
        "Latitude(deg)": 59.28323234521073,
        "Longitude(deg)": -124.89671574159765,
        "Mean Anomaly(deg)": 82.43830614546187,
        "RAAN(deg)": 259.99957995086027,
        "Satellite Name": "Test1 1149",
        "Satellite Number": 1149,
        "Semi-Major Axis(m)": 6980739.136638005,
        "Time(s)": 10
    }
]